<?xml version="1.0" encoding="UTF-8"?>
<ndm xmlns:xsi="http://www.w3.org/2001/XMLSchema-instance" xsi:noNamespaceSchemaLocation="https://sanaregistry.org/r/ndmxml_unqualified/ndmxml-2.0.0-master-2.0.xsd">
<omm id="CCSDS_OMM_VERS" version="2.0">
<header><CREATION_DATE/><ORIGINATOR/></header><body><segment><metadata><OBJECT_NAME>QIANFAN-1</OBJECT_NAME><OBJECT_ID>2024-140A</OBJECT_ID><CENTER_NAME>EARTH</CENTER_NAME><REF_FRAME>TEME</REF_FRAME><TIME_SYSTEM>UTC</TIME_SYSTEM><MEAN_ELEMENT_THEORY>SGP4</MEAN_ELEMENT_THEORY></metadata><data><meanElements><EPOCH>2025-08-27T14:16:57.281088</EPOCH><MEAN_MOTION>13.50960818</MEAN_MOTION><ECCENTRICITY>.00187085</ECCENTRICITY><INCLINATION>88.9821</INCLINATION><RA_OF_ASC_NODE>310.3713</RA_OF_ASC_NODE><ARG_OF_PERICENTER>158.6760</ARG_OF_PERICENTER><MEAN_ANOMALY>201.5175</MEAN_ANOMALY></meanElements><tleParameters><EPHEMERIS_TYPE>0</EPHEMERIS_TYPE><CLASSIFICATION_TYPE>U</CLASSIFICATION_TYPE><NORAD_CAT_ID>60379</NORAD_CAT_ID><ELEMENT_SET_NO>999</ELEMENT_SET_NO><REV_AT_EPOCH>5288</REV_AT_EPOCH><BSTAR>.14056713E-3</BSTAR><MEAN_MOTION_DOT>.103E-5</MEAN_MOTION_DOT><MEAN_MOTION_DDOT>0</MEAN_MOTION_DDOT></tleParameters></data></segment></body></omm>
<omm id="CCSDS_OMM_VERS" version="2.0">
<header><CREATION_DATE/><ORIGINATOR/></header><body><segment><metadata><OBJECT_NAME>QIANFAN-2</OBJECT_NAME><OBJECT_ID>2024-140B</OBJECT_ID><CENTER_NAME>EARTH</CENTER_NAME><REF_FRAME>TEME</REF_FRAME><TIME_SYSTEM>UTC</TIME_SYSTEM><MEAN_ELEMENT_THEORY>SGP4</MEAN_ELEMENT_THEORY></metadata><data><meanElements><EPOCH>2025-08-27T13:11:33.684288</EPOCH><MEAN_MOTION>13.50967315</MEAN_MOTION><ECCENTRICITY>.00147229</ECCENTRICITY><INCLINATION>88.9807</INCLINATION><RA_OF_ASC_NODE>310.2301</RA_OF_ASC_NODE><ARG_OF_PERICENTER>132.3160</ARG_OF_PERICENTER><MEAN_ANOMALY>227.9242</MEAN_ANOMALY></meanElements><tleParameters><EPHEMERIS_TYPE>0</EPHEMERIS_TYPE><CLASSIFICATION_TYPE>U</CLASSIFICATION_TYPE><NORAD_CAT_ID>60380</NORAD_CAT_ID><ELEMENT_SET_NO>999</ELEMENT_SET_NO><REV_AT_EPOCH>5293</REV_AT_EPOCH><BSTAR>.15017783E-3</BSTAR><MEAN_MOTION_DOT>.109E-5</MEAN_MOTION_DOT><MEAN_MOTION_DDOT>0</MEAN_MOTION_DDOT></tleParameters></data></segment></body></omm>
<omm id="CCSDS_OMM_VERS" version="2.0">
<header><CREATION_DATE/><ORIGINATOR/></header><body><segment><metadata><OBJECT_NAME>QIANFAN-3</OBJECT_NAME><OBJECT_ID>2024-140C</OBJECT_ID><CENTER_NAME>EARTH</CENTER_NAME><REF_FRAME>TEME</REF_FRAME><TIME_SYSTEM>UTC</TIME_SYSTEM><MEAN_ELEMENT_THEORY>SGP4</MEAN_ELEMENT_THEORY></metadata><data><meanElements><EPOCH>2025-08-27T13:23:27.947904</EPOCH><MEAN_MOTION>13.50961305</MEAN_MOTION><ECCENTRICITY>.00155853</ECCENTRICITY><INCLINATION>88.9800</INCLINATION><RA_OF_ASC_NODE>310.3698</RA_OF_ASC_NODE><ARG_OF_PERICENTER>143.7606</ARG_OF_PERICENTER><MEAN_ANOMALY>216.4604</MEAN_ANOMALY></meanElements><tleParameters><EPHEMERIS_TYPE>0</EPHEMERIS_TYPE><CLASSIFICATION_TYPE>U</CLASSIFICATION_TYPE><NORAD_CAT_ID>60381</NORAD_CAT_ID><ELEMENT_SET_NO>999</ELEMENT_SET_NO><REV_AT_EPOCH>5284</REV_AT_EPOCH><BSTAR>.15982468E-3</BSTAR><MEAN_MOTION_DOT>.115E-5</MEAN_MOTION_DOT><MEAN_MOTION_DDOT>0</MEAN_MOTION_DDOT></tleParameters></data></segment></body></omm>
<omm id="CCSDS_OMM_VERS" version="2.0">
<header><CREATION_DATE/><ORIGINATOR/></header><body><segment><metadata><OBJECT_NAME>QIANFAN-4</OBJECT_NAME><OBJECT_ID>2024-140D</OBJECT_ID><CENTER_NAME>EARTH</CENTER_NAME><REF_FRAME>TEME</REF_FRAME><TIME_SYSTEM>UTC</TIME_SYSTEM><MEAN_ELEMENT_THEORY>SGP4</MEAN_ELEMENT_THEORY></metadata><data><meanElements><EPOCH>2025-08-27T14:34:43.743072</EPOCH><MEAN_MOTION>13.50960946</MEAN_MOTION><ECCENTRICITY>.00149128</ECCENTRICITY><INCLINATION>88.9825</INCLINATION><RA_OF_ASC_NODE>310.2355</RA_OF_ASC_NODE><ARG_OF_PERICENTER>134.5228</ARG_OF_PERICENTER><MEAN_ANOMALY>225.7144</MEAN_ANOMALY></meanElements><tleParameters><EPHEMERIS_TYPE>0</EPHEMERIS_TYPE><CLASSIFICATION_TYPE>U</CLASSIFICATION_TYPE><NORAD_CAT_ID>60382</NORAD_CAT_ID><ELEMENT_SET_NO>999</ELEMENT_SET_NO><REV_AT_EPOCH>5297</REV_AT_EPOCH><BSTAR>.14569271E-3</BSTAR><MEAN_MOTION_DOT>.106E-5</MEAN_MOTION_DOT><MEAN_MOTION_DDOT>0</MEAN_MOTION_DDOT></tleParameters></data></segment></body></omm>
<omm id="CCSDS_OMM_VERS" version="2.0">
<header><CREATION_DATE/><ORIGINATOR/></header><body><segment><metadata><OBJECT_NAME>QIANFAN-5</OBJECT_NAME><OBJECT_ID>2024-140E</OBJECT_ID><CENTER_NAME>EARTH</CENTER_NAME><REF_FRAME>TEME</REF_FRAME><TIME_SYSTEM>UTC</TIME_SYSTEM><MEAN_ELEMENT_THEORY>SGP4</MEAN_ELEMENT_THEORY></metadata><data><meanElements><EPOCH>2025-08-27T13:59:09.178368</EPOCH><MEAN_MOTION>13.50964166</MEAN_MOTION><ECCENTRICITY>.00165254</ECCENTRICITY><INCLINATION>88.9800</INCLINATION><RA_OF_ASC_NODE>310.3929</RA_OF_ASC_NODE><ARG_OF_PERICENTER>154.3058</ARG_OF_PERICENTER><MEAN_ANOMALY>205.8918</MEAN_ANOMALY></meanElements><tleParameters><EPHEMERIS_TYPE>0</EPHEMERIS_TYPE><CLASSIFICATION_TYPE>U</CLASSIFICATION_TYPE><NORAD_CAT_ID>60383</NORAD_CAT_ID><ELEMENT_SET_NO>999</ELEMENT_SET_NO><REV_AT_EPOCH>5283</REV_AT_EPOCH><BSTAR>.14154669E-3</BSTAR><MEAN_MOTION_DOT>.104E-5</MEAN_MOTION_DOT><MEAN_MOTION_DDOT>0</MEAN_MOTION_DDOT></tleParameters></data></segment></body></omm>
<omm id="CCSDS_OMM_VERS" version="2.0">
<header><CREATION_DATE/><ORIGINATOR/></header><body><segment><metadata><OBJECT_NAME>QIANFAN-6</OBJECT_NAME><OBJECT_ID>2024-140F</OBJECT_ID><CENTER_NAME>EARTH</CENTER_NAME><REF_FRAME>TEME</REF_FRAME><TIME_SYSTEM>UTC</TIME_SYSTEM><MEAN_ELEMENT_THEORY>SGP4</MEAN_ELEMENT_THEORY></metadata><data><meanElements><EPOCH>2025-08-27T14:28:43.936320</EPOCH><MEAN_MOTION>13.50960480</MEAN_MOTION><ECCENTRICITY>.00148901</ECCENTRICITY><INCLINATION>88.9826</INCLINATION><RA_OF_ASC_NODE>310.1085</RA_OF_ASC_NODE><ARG_OF_PERICENTER>139.7339</ARG_OF_PERICENTER><MEAN_ANOMALY>220.4918</MEAN_ANOMALY></meanElements><tleParameters><EPHEMERIS_TYPE>0</EPHEMERIS_TYPE><CLASSIFICATION_TYPE>U</CLASSIFICATION_TYPE><NORAD_CAT_ID>60384</NORAD_CAT_ID><ELEMENT_SET_NO>999</ELEMENT_SET_NO><REV_AT_EPOCH>5303</REV_AT_EPOCH><BSTAR>.1471657E-3</BSTAR><MEAN_MOTION_DOT>.107E-5</MEAN_MOTION_DOT><MEAN_MOTION_DDOT>0</MEAN_MOTION_DDOT></tleParameters></data></segment></body></omm>
<omm id="CCSDS_OMM_VERS" version="2.0">
<header><CREATION_DATE/><ORIGINATOR/></header><body><segment><metadata><OBJECT_NAME>QIANFAN-7</OBJECT_NAME><OBJECT_ID>2024-140G</OBJECT_ID><CENTER_NAME>EARTH</CENTER_NAME><REF_FRAME>TEME</REF_FRAME><TIME_SYSTEM>UTC</TIME_SYSTEM><MEAN_ELEMENT_THEORY>SGP4</MEAN_ELEMENT_THEORY></metadata><data><meanElements><EPOCH>2025-08-27T13:43:33.302208</EPOCH><MEAN_MOTION>14.27524591</MEAN_MOTION><ECCENTRICITY>.0016183</ECCENTRICITY><INCLINATION>88.9825</INCLINATION><RA_OF_ASC_NODE>306.3163</RA_OF_ASC_NODE><ARG_OF_PERICENTER>42.0880</ARG_OF_PERICENTER><MEAN_ANOMALY>318.1554</MEAN_ANOMALY></meanElements><tleParameters><EPHEMERIS_TYPE>0</EPHEMERIS_TYPE><CLASSIFICATION_TYPE>U</CLASSIFICATION_TYPE><NORAD_CAT_ID>60385</NORAD_CAT_ID><ELEMENT_SET_NO>999</ELEMENT_SET_NO><REV_AT_EPOCH>5510</REV_AT_EPOCH><BSTAR>.2229769E-3</BSTAR><MEAN_MOTION_DOT>.563E-5</MEAN_MOTION_DOT><MEAN_MOTION_DDOT>0</MEAN_MOTION_DDOT></tleParameters></data></segment></body></omm>
<omm id="CCSDS_OMM_VERS" version="2.0">
<header><CREATION_DATE/><ORIGINATOR/></header><body><segment><metadata><OBJECT_NAME>QIANFAN-8</OBJECT_NAME><OBJECT_ID>2024-140H</OBJECT_ID><CENTER_NAME>EARTH</CENTER_NAME><REF_FRAME>TEME</REF_FRAME><TIME_SYSTEM>UTC</TIME_SYSTEM><MEAN_ELEMENT_THEORY>SGP4</MEAN_ELEMENT_THEORY></metadata><data><meanElements><EPOCH>2025-08-27T14:40:37.345440</EPOCH><MEAN_MOTION>13.50964382</MEAN_MOTION><ECCENTRICITY>.00182779</ECCENTRICITY><INCLINATION>88.9828</INCLINATION><RA_OF_ASC_NODE>310.3433</RA_OF_ASC_NODE><ARG_OF_PERICENTER>142.8136</ARG_OF_PERICENTER><MEAN_ANOMALY>217.4285</MEAN_ANOMALY></meanElements><tleParameters><EPHEMERIS_TYPE>0</EPHEMERIS_TYPE><CLASSIFICATION_TYPE>U</CLASSIFICATION_TYPE><NORAD_CAT_ID>60386</NORAD_CAT_ID><ELEMENT_SET_NO>999</ELEMENT_SET_NO><REV_AT_EPOCH>5288</REV_AT_EPOCH><BSTAR>.12742598E-3</BSTAR><MEAN_MOTION_DOT>.94E-6</MEAN_MOTION_DOT><MEAN_MOTION_DDOT>0</MEAN_MOTION_DDOT></tleParameters></data></segment></body></omm>

</ndm>
