QIANFAN-1               
1 60379U 24140A   25239.59510742  .00000103  00000+0  14057-3 0  9993
2 60379  88.9821 310.3713 0018708 158.6760 201.5175 13.50960818 52883
QIANFAN-2               
1 60380U 24140B   25239.54969542  .00000109  00000+0  15018-3 0  9990
2 60380  88.9807 310.2301 0014722 132.3160 227.9242 13.50967315 52938
QIANFAN-3               
1 60381U 24140C   25239.55796236  .00000115  00000+0  15982-3 0  9997
2 60381  88.9800 310.3698 0015585 143.7606 216.4604 13.50961305 52849
QIANFAN-4               
1 60382U 24140D   25239.60745073  .00000106  00000+0  14569-3 0  9997
2 60382  88.9825 310.2355 0014912 134.5228 225.7144 13.50960946 52973
QIANFAN-5               
1 60383U 24140E   25239.58274512  .00000104  00000+0  14155-3 0  9999
2 60383  88.9800 310.3929 0016525 154.3058 205.8918 13.50964166 52839
QIANFAN-6               
1 60384U 24140F   25239.60328630  .00000107  00000+0  14717-3 0  9991
2 60384  88.9826 310.1085 0014890 139.7339 220.4918 13.50960480 53032
QIANFAN-7               
1 60385U 24140G   25239.57191322  .00000563  00000+0  22298-3 0  9993
2 60385  88.9825 306.3163 0016183  42.0880 318.1554 14.27524591 55105
QIANFAN-8               
1 60386U 24140H   25239.61154335  .00000094  00000+0  12743-3 0  9995
2 60386  88.9828 310.3433 0018277 142.8136 217.4285 13.50964382 52888
